<?xml version="1.0" encoding="UTF-8"?>
<ndm xmlns:xsi="http://www.w3.org/2001/XMLSchema-instance" xsi:noNamespaceSchemaLocation="https://sanaregistry.org/r/ndmxml_unqualified/ndmxml-2.0.0-master-2.0.xsd">
<omm id="CCSDS_OMM_VERS" version="2.0">
<header><CREATION_DATE/><ORIGINATOR/></header><body><segment><metadata><OBJECT_NAME>KUIPER-00027</OBJECT_NAME><OBJECT_ID>2025-088S</OBJECT_ID><CENTER_NAME>EARTH</CENTER_NAME><REF_FRAME>TEME</REF_FRAME><TIME_SYSTEM>UTC</TIME_SYSTEM><MEAN_ELEMENT_THEORY>SGP4</MEAN_ELEMENT_THEORY></metadata><data><meanElements><EPOCH>2025-11-06T14:39:14.657184</EPOCH><MEAN_MOTION>14.79625749</MEAN_MOTION><ECCENTRICITY>.0005326</ECCENTRICITY><INCLINATION>51.9019</INCLINATION><RA_OF_ASC_NODE>279.7200</RA_OF_ASC_NODE><ARG_OF_PERICENTER>107.3738</ARG_OF_PERICENTER><MEAN_ANOMALY>252.7807</MEAN_ANOMALY></meanElements><tleParameters><EPHEMERIS_TYPE>0</EPHEMERIS_TYPE><CLASSIFICATION_TYPE>U</CLASSIFICATION_TYPE><NORAD_CAT_ID>63740</NORAD_CAT_ID><ELEMENT_SET_NO>999</ELEMENT_SET_NO><REV_AT_EPOCH>2939</REV_AT_EPOCH><BSTAR>.64833E-3</BSTAR><MEAN_MOTION_DOT>.4689E-4</MEAN_MOTION_DOT><MEAN_MOTION_DDOT>0</MEAN_MOTION_DDOT></tleParameters></data></segment></body></omm>
<omm id="CCSDS_OMM_VERS" version="2.0">
<header><CREATION_DATE/><ORIGINATOR/></header><body><segment><metadata><OBJECT_NAME>KUIPER-00028</OBJECT_NAME><OBJECT_ID>2025-088T</OBJECT_ID><CENTER_NAME>EARTH</CENTER_NAME><REF_FRAME>TEME</REF_FRAME><TIME_SYSTEM>UTC</TIME_SYSTEM><MEAN_ELEMENT_THEORY>SGP4</MEAN_ELEMENT_THEORY></metadata><data><meanElements><EPOCH>2025-11-06T05:19:00.787296</EPOCH><MEAN_MOTION>14.79382907</MEAN_MOTION><ECCENTRICITY>.0004569</ECCENTRICITY><INCLINATION>51.9017</INCLINATION><RA_OF_ASC_NODE>279.4091</RA_OF_ASC_NODE><ARG_OF_PERICENTER>124.2868</ARG_OF_PERICENTER><MEAN_ANOMALY>235.8527</MEAN_ANOMALY></meanElements><tleParameters><EPHEMERIS_TYPE>0</EPHEMERIS_TYPE><CLASSIFICATION_TYPE>U</CLASSIFICATION_TYPE><NORAD_CAT_ID>63741</NORAD_CAT_ID><ELEMENT_SET_NO>999</ELEMENT_SET_NO><REV_AT_EPOCH>2977</REV_AT_EPOCH><BSTAR>.61526E-3</BSTAR><MEAN_MOTION_DOT>.4412E-4</MEAN_MOTION_DOT><MEAN_MOTION_DDOT>0</MEAN_MOTION_DDOT></tleParameters></data></segment></body></omm>
<omm id="CCSDS_OMM_VERS" version="2.0">
<header><CREATION_DATE/><ORIGINATOR/></header><body><segment><metadata><OBJECT_NAME>KUIPER-00029</OBJECT_NAME><OBJECT_ID>2025-088U</OBJECT_ID><CENTER_NAME>EARTH</CENTER_NAME><REF_FRAME>TEME</REF_FRAME><TIME_SYSTEM>UTC</TIME_SYSTEM><MEAN_ELEMENT_THEORY>SGP4</MEAN_ELEMENT_THEORY></metadata><data><meanElements><EPOCH>2025-11-06T14:22:21.409824</EPOCH><MEAN_MOTION>14.80026616</MEAN_MOTION><ECCENTRICITY>.0009576</ECCENTRICITY><INCLINATION>51.9022</INCLINATION><RA_OF_ASC_NODE>275.6482</RA_OF_ASC_NODE><ARG_OF_PERICENTER>79.1256</ARG_OF_PERICENTER><MEAN_ANOMALY>281.0784</MEAN_ANOMALY></meanElements><tleParameters><EPHEMERIS_TYPE>0</EPHEMERIS_TYPE><CLASSIFICATION_TYPE>U</CLASSIFICATION_TYPE><NORAD_CAT_ID>63742</NORAD_CAT_ID><ELEMENT_SET_NO>999</ELEMENT_SET_NO><REV_AT_EPOCH>2938</REV_AT_EPOCH><BSTAR>.61026E-3</BSTAR><MEAN_MOTION_DOT>.4445E-4</MEAN_MOTION_DOT><MEAN_MOTION_DDOT>0</MEAN_MOTION_DDOT></tleParameters></data></segment></body></omm>
<omm id="CCSDS_OMM_VERS" version="2.0">
<header><CREATION_DATE/><ORIGINATOR/></header><body><segment><metadata><OBJECT_NAME>KUIPER-00030</OBJECT_NAME><OBJECT_ID>2025-088V</OBJECT_ID><CENTER_NAME>EARTH</CENTER_NAME><REF_FRAME>TEME</REF_FRAME><TIME_SYSTEM>UTC</TIME_SYSTEM><MEAN_ELEMENT_THEORY>SGP4</MEAN_ELEMENT_THEORY></metadata><data><meanElements><EPOCH>2025-11-06T16:08:10.938048</EPOCH><MEAN_MOTION>14.79966961</MEAN_MOTION><ECCENTRICITY>.0014572</ECCENTRICITY><INCLINATION>51.9020</INCLINATION><RA_OF_ASC_NODE>294.5198</RA_OF_ASC_NODE><ARG_OF_PERICENTER>25.5736</ARG_OF_PERICENTER><MEAN_ANOMALY>334.5944</MEAN_ANOMALY></meanElements><tleParameters><EPHEMERIS_TYPE>0</EPHEMERIS_TYPE><CLASSIFICATION_TYPE>U</CLASSIFICATION_TYPE><NORAD_CAT_ID>63743</NORAD_CAT_ID><ELEMENT_SET_NO>999</ELEMENT_SET_NO><REV_AT_EPOCH>2941</REV_AT_EPOCH><BSTAR>.10513E-2</BSTAR><MEAN_MOTION_DOT>.7819E-4</MEAN_MOTION_DOT><MEAN_MOTION_DDOT>0</MEAN_MOTION_DDOT></tleParameters></data></segment></body></omm>
<omm id="CCSDS_OMM_VERS" version="2.0">
<header><CREATION_DATE/><ORIGINATOR/></header><body><segment><metadata><OBJECT_NAME>KUIPER-00031</OBJECT_NAME><OBJECT_ID>2025-088W</OBJECT_ID><CENTER_NAME>EARTH</CENTER_NAME><REF_FRAME>TEME</REF_FRAME><TIME_SYSTEM>UTC</TIME_SYSTEM><MEAN_ELEMENT_THEORY>SGP4</MEAN_ELEMENT_THEORY></metadata><data><meanElements><EPOCH>2025-11-06T14:51:11.455776</EPOCH><MEAN_MOTION>14.80034734</MEAN_MOTION><ECCENTRICITY>.0005192</ECCENTRICITY><INCLINATION>51.9005</INCLINATION><RA_OF_ASC_NODE>280.8233</RA_OF_ASC_NODE><ARG_OF_PERICENTER>62.4043</ARG_OF_PERICENTER><MEAN_ANOMALY>297.7446</MEAN_ANOMALY></meanElements><tleParameters><EPHEMERIS_TYPE>0</EPHEMERIS_TYPE><CLASSIFICATION_TYPE>U</CLASSIFICATION_TYPE><NORAD_CAT_ID>63744</NORAD_CAT_ID><ELEMENT_SET_NO>999</ELEMENT_SET_NO><REV_AT_EPOCH>2931</REV_AT_EPOCH><BSTAR>.69801E-3</BSTAR><MEAN_MOTION_DOT>.5117E-4</MEAN_MOTION_DOT><MEAN_MOTION_DDOT>0</MEAN_MOTION_DDOT></tleParameters></data></segment></body></omm>
<omm id="CCSDS_OMM_VERS" version="2.0">
<header><CREATION_DATE/><ORIGINATOR/></header><body><segment><metadata><OBJECT_NAME>KUIPER-00032</OBJECT_NAME><OBJECT_ID>2025-088X</OBJECT_ID><CENTER_NAME>EARTH</CENTER_NAME><REF_FRAME>TEME</REF_FRAME><TIME_SYSTEM>UTC</TIME_SYSTEM><MEAN_ELEMENT_THEORY>SGP4</MEAN_ELEMENT_THEORY></metadata><data><meanElements><EPOCH>2025-11-06T03:04:04.796256</EPOCH><MEAN_MOTION>15.32074940</MEAN_MOTION><ECCENTRICITY>.0006048</ECCENTRICITY><INCLINATION>51.8740</INCLINATION><RA_OF_ASC_NODE>259.1832</RA_OF_ASC_NODE><ARG_OF_PERICENTER>55.0640</ARG_OF_PERICENTER><MEAN_ANOMALY>305.0912</MEAN_ANOMALY></meanElements><tleParameters><EPHEMERIS_TYPE>0</EPHEMERIS_TYPE><CLASSIFICATION_TYPE>U</CLASSIFICATION_TYPE><NORAD_CAT_ID>63745</NORAD_CAT_ID><ELEMENT_SET_NO>999</ELEMENT_SET_NO><REV_AT_EPOCH>3057</REV_AT_EPOCH><BSTAR>.73052E-3</BSTAR><MEAN_MOTION_DOT>.22668E-3</MEAN_MOTION_DOT><MEAN_MOTION_DDOT>0</MEAN_MOTION_DDOT></tleParameters></data></segment></body></omm>
<omm id="CCSDS_OMM_VERS" version="2.0">
<header><CREATION_DATE/><ORIGINATOR/></header><body><segment><metadata><OBJECT_NAME>KUIPER-00033</OBJECT_NAME><OBJECT_ID>2025-088Y</OBJECT_ID><CENTER_NAME>EARTH</CENTER_NAME><REF_FRAME>TEME</REF_FRAME><TIME_SYSTEM>UTC</TIME_SYSTEM><MEAN_ELEMENT_THEORY>SGP4</MEAN_ELEMENT_THEORY></metadata><data><meanElements><EPOCH>2025-11-06T07:36:18.642816</EPOCH><MEAN_MOTION>14.79872195</MEAN_MOTION><ECCENTRICITY>.0003929</ECCENTRICITY><INCLINATION>51.9019</INCLINATION><RA_OF_ASC_NODE>312.1489</RA_OF_ASC_NODE><ARG_OF_PERICENTER>121.8168</ARG_OF_PERICENTER><MEAN_ANOMALY>238.3177</MEAN_ANOMALY></meanElements><tleParameters><EPHEMERIS_TYPE>0</EPHEMERIS_TYPE><CLASSIFICATION_TYPE>U</CLASSIFICATION_TYPE><NORAD_CAT_ID>63746</NORAD_CAT_ID><ELEMENT_SET_NO>999</ELEMENT_SET_NO><REV_AT_EPOCH>2933</REV_AT_EPOCH><BSTAR>.26809E-3</BSTAR><MEAN_MOTION_DOT>.182E-4</MEAN_MOTION_DOT><MEAN_MOTION_DDOT>0</MEAN_MOTION_DDOT></tleParameters></data></segment></body></omm>
<omm id="CCSDS_OMM_VERS" version="2.0">
<header><CREATION_DATE/><ORIGINATOR/></header><body><segment><metadata><OBJECT_NAME>KUIPER-00034</OBJECT_NAME><OBJECT_ID>2025-088Z</OBJECT_ID><CENTER_NAME>EARTH</CENTER_NAME><REF_FRAME>TEME</REF_FRAME><TIME_SYSTEM>UTC</TIME_SYSTEM><MEAN_ELEMENT_THEORY>SGP4</MEAN_ELEMENT_THEORY></metadata><data><meanElements><EPOCH>2025-11-06T14:32:13.164288</EPOCH><MEAN_MOTION>14.80041903</MEAN_MOTION><ECCENTRICITY>.0002922</ECCENTRICITY><INCLINATION>51.9018</INCLINATION><RA_OF_ASC_NODE>273.1592</RA_OF_ASC_NODE><ARG_OF_PERICENTER>57.7624</ARG_OF_PERICENTER><MEAN_ANOMALY>302.3621</MEAN_ANOMALY></meanElements><tleParameters><EPHEMERIS_TYPE>0</EPHEMERIS_TYPE><CLASSIFICATION_TYPE>U</CLASSIFICATION_TYPE><NORAD_CAT_ID>63747</NORAD_CAT_ID><ELEMENT_SET_NO>999</ELEMENT_SET_NO><REV_AT_EPOCH>2958</REV_AT_EPOCH><BSTAR>.70641E-3</BSTAR><MEAN_MOTION_DOT>.5182E-4</MEAN_MOTION_DOT><MEAN_MOTION_DDOT>0</MEAN_MOTION_DDOT></tleParameters></data></segment></body></omm>

</ndm>
