KUIPER-00027            
1 63740U 25088S   25310.61058631  .00004689  00000+0  64833-3 0  9997
2 63740  51.9019 279.7200 0005326 107.3738 252.7807 14.79625749 29397
KUIPER-00028            
1 63741U 25088T   25310.22153689  .00004412  00000+0  61526-3 0  9994
2 63741  51.9017 279.4091 0004569 124.2868 235.8527 14.79382907 29770
KUIPER-00029            
1 63742U 25088U   25310.59885891  .00004445  00000+0  61026-3 0  9993
2 63742  51.9022 275.6482 0009576  79.1256 281.0784 14.80026616 29380
KUIPER-00030            
1 63743U 25088V   25310.67234882  .00007819  00000+0  10513-2 0  9993
2 63743  51.9020 294.5198 0014572  25.5736 334.5944 14.79966961 29413
KUIPER-00031            
1 63744U 25088W   25310.61888259  .00005117  00000+0  69801-3 0  9995
2 63744  51.9005 280.8233 0005192  62.4043 297.7446 14.80034734 29316
KUIPER-00032            
1 63745U 25088X   25310.12783329  .00022668  00000+0  73052-3 0  9997
2 63745  51.8740 259.1832 0006048  55.0640 305.0912 15.32074940 30570
KUIPER-00033            
1 63746U 25088Y   25310.31688244  .00001820  00000+0  26809-3 0  9994
2 63746  51.9019 312.1489 0003929 121.8168 238.3177 14.79872195 29332
KUIPER-00034            
1 63747U 25088Z   25310.60570792  .00005182  00000+0  70641-3 0  9993
2 63747  51.9018 273.1592 0002922  57.7624 302.3621 14.80041903 29589
